#aV2012 10  5  0  0  0.00000000     288 DD+AD WGS84 FIT  NGA
## 1708 432000.00000000   300.00000000 56205 0.0000000000000
+   31     1  2  3  4  5  6  7  8  9 10 11 12 13 14 15 16 17
+         18 19 20 21 22 23 25 26 27 28 29 30 31 32  0  0  0
+          0  0  0  0  0  0  0  0  0  0  0  0  0  0  0  0  0
+          0  0  0  0  0  0  0  0  0  0  0  0  0  0  0  0  0
+          0  0  0  0  0  0  0  0  0  0  0  0  0  0  0  0  0
++         2  2  2  2  2  2  2  2  2  2  2  2  2  2  2  2  2
++         2  2  2  2  2  2  2  2  2  2  2  2  2  2  2  0  0
++         0  0  0  0  0  0  0  0  0  0  0  0  0  0  0  0  0
++         0  0  0  0  0  0  0  0  0  0  0  0  0  0  0  0  0
++         0  0  0  0  0  0  0  0  0  0  0  0  0  0  0  0  0
%c cc cc ccc ccc cccc cccc cccc cccc ccccc ccccc ccccc ccccc
%c cc cc ccc ccc cccc cccc cccc cccc ccccc ccccc ccccc ccccc
%f  0.0000000  0.000000000  0.00000000000  0.000000000000000
%f  0.0000000  0.000000000  0.00000000000  0.000000000000000
%i    0    0    0    0      0      0      0      0         0
%i    0    0    0    0      0      0      0      0         0
/*      NGA, ST. LOUIS,MO.                                  
/*   EPHEMERIS COMPUTED FROM  1 DAYS OF DATA
/*   EPOCHA SMOOTHER  
/* CCCCCCCCCCCCCCCCCCCCCCCCCCCCCCCCCCCCCCCCCCCCCCCCCCCCCCCCC
*  2012 10  5 11 25  0.00000000                                                 
P  1   -858.480478 -15490.767410 -21569.347636    276.470654                    
V  1  26329.308060  -7436.145580   4349.707707      0.016236                    
P  2 -19559.668560  14249.763665  10488.441925    405.004299                    
V  2 -13728.337210    764.675600 -27531.296800      0.011633                    
P  3   9586.008435 -22337.608596   9910.585232    110.562338                    
V  3   2283.564028  13723.532882  27609.592397      0.049839                    
P  4 -26028.314211   5299.741386  -3225.374937      7.111529                    
V  4   2674.815952  -4155.857648 -30692.343452      0.112438                    
P  5  -8699.075765  12907.682104  21491.645981   -357.198782                    
V  5 -20163.766778 -18536.704807   3104.238113     -0.028361                    
P  6  13688.052472 -17676.090790  14193.387461    492.314321                    
V  6   -365.933101  18254.323409  23571.469226     -0.092631                    
P  7 -16459.395167  -8797.165931  19043.779097    129.791800                    
V  7  22822.468914  -7396.669976  16059.264749      0.044579                    
P  8 -25096.938512  -1552.732839   9531.751769      2.293177                    
V  8  11369.675135  -3127.616797  29127.249853      0.001406                    
P  9  -4444.535351  16087.321040 -21226.991282    190.218034                    
V  9 -24661.793971   6944.554916  10645.875637      0.025363                    
P 10 -20672.638542  -3958.006792  16172.745892    -54.166252                    
V 10 -13497.919176 -16099.780164 -20448.824252     -0.013231                    
P 11   3509.957301 -19546.435309 -17924.081760   -309.667980                    
V 11  20247.824323  -9841.814703  15357.778197     -0.038739                    
P 12   8381.693544  21298.433704 -13656.399029     94.532621                    
V 12 -13264.964851 -11055.377039 -25233.210652      0.020374                    
P 13  -7549.151620 -16815.562913  18944.865490    176.503137                    
V 13   8988.266885 -22628.381828 -16496.671743     -0.026152                    
P 14  15357.651162   -576.352335 -21446.875142    214.178127                    
V 14  -7737.587642  26574.275077  -6342.922156      0.008244                    
P 15  -3895.634514  26049.900924  -2261.449882    -96.669626                    
V 15  -4074.395954   2085.259827  31337.895537     -0.007755                    
P 16   8889.518947 -11920.040092  21981.786181   -247.360107                    
V 16  19595.230874  19843.938980   3139.840238     -0.007056                    
P 17 -15592.122203    866.452225 -21270.222169     90.613082                    
V 17   6756.962985 -26631.766708  -6222.943369     -0.033527                    
P 18  20585.328342  16778.762407  -2857.282280    218.214234                    
V 18    502.791866   5344.069799  30529.024484      0.018229                    
P 19   7875.220543 -25123.290651   -802.714101   -310.088039                    
V 19   3305.684739    115.935360  31997.013305     -0.034760                    
P 20 -11025.618585 -21179.340489 -11868.519554     69.763837                    
V 20  13268.172942   7378.010204 -25771.887446      0.009362                    
P 21  19654.783836   7457.473522  17063.919483   -253.955064                    
V 21 -19235.278442   7525.644530  18896.804856     -0.023889                    
P 22  21426.550505   5395.970405 -14641.132595    148.835780                    
V 22  11716.884774  15167.782520  22319.520802      0.003566                    
P 23   -922.868120 -24470.742272   9835.921193    157.545252                    
V 23   5870.143204 -11448.852681 -28475.188151     -0.039164                    
P 25  18023.419426  19367.261278  -2754.757525     45.294664                    
V 25  -4181.500325   -556.152366 -31669.354429      0.014711                    
P 26 -12643.384114  21631.232442   7625.570510   -257.145573                    
V 26   1063.110503 -10832.614403  30409.583094      0.133731                    
P 27  -8474.573430  15972.473443 -18656.443165    438.680486                    
V 27 -24287.599832   6508.478923  16619.424908      0.040484                    
P 28 -21015.283350 -10031.826770 -12407.537248    192.025049                    
V 28 -10090.906829 -13242.513160  26396.580698      0.035415                    
P 29   6635.884026  19415.424931  16941.199132    362.753254                    
V 29  -7544.679445  20084.042749 -20080.140819      0.040806                    
P 30  17182.128334  -3924.256929  19505.443105   -379.449447                    
V 30  19435.370557  16644.259710 -13545.045402      0.190420                    
P 31  25673.167133  -7321.866160    409.604034    278.765723                    
V 31    793.211699   1817.380710 -32026.977340      0.024389                    
P 32  -1403.318301 -20177.258456 -17276.727989   -495.039893                    
V 32  15913.599744  15486.222064 -18679.775453     -0.038969                    
EOF
